[
  {
    "name": "ONEWEB-0193",
    "noradId": "48238",
    "line1": "1 48238U 21031AE  26195.77644919  .00000166  00000+0  41252-3 0  9991",
    "line2": "2 48238  87.8968 284.2022 0001805 110.6589 249.4735 13.14502204251933"
  },
  {
    "name": "ONEWEB-0191",
    "noradId": "48239",
    "line1": "1 48239U 21031AF  26195.78753481  .00000199  00000+0  50311-3 0  9990",
    "line2": "2 48239  87.8977 284.2005 0001904  95.3103 264.8244 13.14506466251790"
  },
  {
    "name": "ONEWEB-0195",
    "noradId": "48240",
    "line1": "1 48240U 21031AG  26195.76455054  .00000149  00000+0  36655-3 0  9995",
    "line2": "2 48240  87.8977 284.2050 0002443  98.7099 261.4308 13.14503474251770"
  },
  {
    "name": "ONEWEB-0201",
    "noradId": "48241",
    "line1": "1 48241U 21031AH  26195.75279014 -.00000020  00000+0 -88799-4 0  9992",
    "line2": "2 48241  87.8966 284.2221 0002028  91.8750 268.2612 13.14502391252003"
  },
  {
    "name": "ONEWEB-0207",
    "noradId": "48242",
    "line1": "1 48242U 21031AJ  26195.80893610 -.00000149  00000+0 -43562-3 0  9993",
    "line2": "2 48242  87.8974 284.1969 0002035  92.2125 267.9238 13.14501652251929"
  },
  {
    "name": "ONEWEB-0208",
    "noradId": "48243",
    "line1": "1 48243U 21031AK  26195.79071538  .00000050  00000+0  99847-4 0  9996",
    "line2": "2 48243  87.8972 284.2062 0002368 102.7594 257.3801 13.14502063251936"
  },
  {
    "name": "ONEWEB-0200",
    "noradId": "48244",
    "line1": "1 48244U 21031AL  26195.75424817 -.00000037  00000+0 -13434-3 0  9999",
    "line2": "2 48244  87.8980 284.2026 0002120  98.6608 261.4762 13.14502365251859"
  },
  {
    "name": "ONEWEB-0217",
    "noradId": "48245",
    "line1": "1 48245U 21031AM  26195.77010319  .00000232  00000+0  59146-3 0  9995",
    "line2": "2 48245  87.8977 284.2035 0002399 103.0708 257.0689 13.14502504251805"
  },
  {
    "name": "ONEWEB-0211",
    "noradId": "48767",
    "line1": "1 48767U 21045A   26195.71013980  .00000043  00000+0  80225-4 0  9993",
    "line2": "2 48767  87.8990 253.5926 0002663 106.3852 253.7572 13.16197991248067"
  },
  {
    "name": "ONEWEB-0223",
    "noradId": "48768",
    "line1": "1 48768U 21045B   26195.64996631 -.00000164  00000+0 -47094-3 0  9991",
    "line2": "2 48768  87.8993 253.7206 0002318 107.0577 253.0808 13.15547966248013"
  },
  {
    "name": "ONEWEB-0230",
    "noradId": "48769",
    "line1": "1 48769U 21045C   26195.69750510  .00000139  00000+0  33507-3 0  9995",
    "line2": "2 48769  87.8986 253.7220 0001923  97.4659 262.6690 13.15548019248280"
  },
  {
    "name": "ONEWEB-0237",
    "noradId": "48770",
    "line1": "1 48770U 21045D   26195.68640937  .00000161  00000+0  39240-3 0  9992",
    "line2": "2 48770  87.8980 253.7264 0002395  97.5713 262.5690 13.15548093248001"
  },
  {
    "name": "ONEWEB-0235",
    "noradId": "48771",
    "line1": "1 48771U 21045E   26195.66104177 -.00000041  00000+0 -14386-3 0  9995",
    "line2": "2 48771  87.8993 253.7196 0002245 108.9465 251.1909 13.15550020247992"
  },
  {
    "name": "ONEWEB-0242",
    "noradId": "48772",
    "line1": "1 48772U 21045F   26195.65471998 -.00000170  00000+0 -48484-3 0  9992",
    "line2": "2 48772  87.8996 253.7179 0001957 102.7259 257.4090 13.15548604248030"
  },
  {
    "name": "ONEWEB-0241",
    "noradId": "48773",
    "line1": "1 48773U 21045G   26195.71809893 -.00000125  00000+0 -36597-3 0  9991",
    "line2": "2 48773  87.8986 253.7204 0002386 105.3687 254.7707 13.15537921247955"
  },
  {
    "name": "ONEWEB-0243",
    "noradId": "48774",
    "line1": "1 48774U 21045H   26195.67372299  .00000073  00000+0  16014-3 0  9994",
    "line2": "2 48774  87.8981 253.7420 0001850 112.7369 247.3958 13.15550323247974"
  },
  {
    "name": "ONEWEB-0222",
    "noradId": "48775",
    "line1": "1 48775U 21045J   26195.65708993 -.00000080  00000+0 -24675-3 0  9999",
    "line2": "2 48775  87.8992 253.7146 0002255 102.8575 257.2807 13.15546996248011"
  },
  {
    "name": "ONEWEB-0244",
    "noradId": "48776",
    "line1": "1 48776U 21045K   26195.68324405  .00000126  00000+0  30050-3 0  9998",
    "line2": "2 48776  87.8996 253.7061 0002070 102.2017 257.9346 13.15548018248586"
  },
  {
    "name": "ONEWEB-0247",
    "noradId": "48777",
    "line1": "1 48777U 21045L   26195.68005855  .00001278  00000+0  33600-2 0  9996",
    "line2": "2 48777  87.8985 253.7347 0002110 119.5205 240.6136 13.15558456248029"
  },
  {
    "name": "ONEWEB-0245",
    "noradId": "48778",
    "line1": "1 48778U 21045M   26195.67530824  .00000131  00000+0  31509-3 0  9999",
    "line2": "2 48778  87.8991 253.7180 0002261 101.3543 258.7842 13.15548602247994"
  },
  {
    "name": "ONEWEB-0229",
    "noradId": "48779",
    "line1": "1 48779U 21045N   26195.67056482  .00000106  00000+0  24635-3 0  9997",
    "line2": "2 48779  87.8992 253.7164 0001986 101.4872 258.6481 13.15547257248025"
  },
  {
    "name": "ONEWEB-0228",
    "noradId": "48780",
    "line1": "1 48780U 21045P   26195.70397262  .00000120  00000+0  28365-3 0  9997",
    "line2": "2 48780  87.9003 253.7031 0002086 100.4348 259.7017 13.15549167247942"
  },
  {
    "name": "ONEWEB-0232",
    "noradId": "48781",
    "line1": "1 48781U 21045Q   26195.67849274 -.00000086  00000+0 -26264-3 0  9998",
    "line2": "2 48781  87.8992 253.7099 0002207  97.2678 262.8704 13.15547793248264"
  },
  {
    "name": "ONEWEB-0231",
    "noradId": "48782",
    "line1": "1 48782U 21045R   26195.65630300 -.00000125  00000+0 -36579-3 0  9999",
    "line2": "2 48782  87.8989 253.7251 0002218 103.8332 256.3046 13.15547616247950"
  },
  {
    "name": "ONEWEB-0234",
    "noradId": "48783",
    "line1": "1 48783U 21045S   26195.69419703  .00000172  00000+0  42156-3 0  9994",
    "line2": "2 48783  87.8994 253.6998 0002753  87.5315 272.6130 13.15547998248091"
  },
  {
    "name": "ONEWEB-0238",
    "noradId": "48784",
    "line1": "1 48784U 21045T   26195.69445652  .00000079  00000+0  17592-3 0  9999",
    "line2": "2 48784  87.9000 253.6960 0002406  91.7167 268.4239 13.15548455247997"
  },
  {
    "name": "ONEWEB-0240",
    "noradId": "48785",
    "line1": "1 48785U 21045U   26195.71571684 -.00000048  00000+0 -16153-3 0  9998",
    "line2": "2 48785  87.8998 253.7012 0002363 103.0142 257.1253 13.15548970248022"
  },
  {
    "name": "ONEWEB-0246",
    "noradId": "48786",
    "line1": "1 48786U 21045V   26195.71017700 -.00000013  00000+0 -67907-4 0  9999",
    "line2": "2 48786  87.8996 253.7060 0002008 101.2565 258.8791 13.15547729247899"
  },
  {
    "name": "ONEWEB-0210",
    "noradId": "48787",
    "line1": "1 48787U 21045W   26195.68482584  .00000140  00000+0  33705-3 0  9999",
    "line2": "2 48787  87.8994 253.7088 0001801 123.2215 236.9089 13.15547652247931"
  },
  {
    "name": "ONEWEB-0214",
    "noradId": "48788",
    "line1": "1 48788U 21045X   26195.69352896  .00000160  00000+0  39042-3 0  9995",
    "line2": "2 48788  87.8996 253.7039 0001715 101.0528 259.0796 13.15546990247907"
  },
  {
    "name": "ONEWEB-0221",
    "noradId": "48789",
    "line1": "1 48789U 21045Y   26195.70067452  .00000146  00000+0  35384-3 0  9998",
    "line2": "2 48789  87.8998 253.7104 0002132 103.9847 256.1520 13.15548154247998"
  },
  {
    "name": "ONEWEB-0213",
    "noradId": "48790",
    "line1": "1 48790U 21045Z   26195.68958089  .00000181  00000+0  44585-3 0  9994",
    "line2": "2 48790  87.8994 253.7161 0002079 107.9579 252.1779 13.15548355248058"
  },
  {
    "name": "ONEWEB-0212",
    "noradId": "48791",
    "line1": "1 48791U 21045AA  26195.66659253 -.00000023  00000+0 -95279-4 0  9998",
    "line2": "2 48791  87.8992 253.7151 0002120  97.9663 262.1708 13.15547144248042"
  },
  {
    "name": "ONEWEB-0227",
    "noradId": "48792",
    "line1": "1 48792U 21045AB  26195.66581060  .00000018  00000+0  13925-4 0  9999",
    "line2": "2 48792  87.8992 253.7153 0002140 100.4379 259.6992 13.15547579247992"
  },
  {
    "name": "ONEWEB-0226",
    "noradId": "48793",
    "line1": "1 48793U 21045AC  26195.65947055 -.00000134  00000+0 -38882-3 0  9998",
    "line2": "2 48793  87.8993 253.7212 0002016 105.1889 254.9465 13.15547924247964"
  },
  {
    "name": "ONEWEB-0224",
    "noradId": "48794",
    "line1": "1 48794U 21045AD  26195.69909044  .00000080  00000+0  17729-3 0  9994",
    "line2": "2 48794  87.8986 253.7455 0002956  98.9664 261.1801 13.15548643247894"
  },
  {
    "name": "ONEWEB-0233",
    "noradId": "48795",
    "line1": "1 48795U 21045AE  26195.70369766  .00000067  00000+0  14514-3 0  9992",
    "line2": "2 48795  87.8984 253.7519 0002250 105.0449 255.0931 13.15550811247911"
  },
  {
    "name": "ONEWEB-0190",
    "noradId": "48796",
    "line1": "1 48796U 21045AF  26195.69116466  .00000090  00000+0  20389-3 0  9991",
    "line2": "2 48796  87.8990 253.7183 0002244 116.4697 243.6664 13.15547829247988"
  },
  {
    "name": "ONEWEB-0236",
    "noradId": "48797",
    "line1": "1 48797U 21045AG  26195.70859651  .00000059  00000+0  12168-3 0  9995",
    "line2": "2 48797  87.8983 253.7226 0002132  95.2280 264.9093 13.15548551247870"
  },
  {
    "name": "ONEWEB-0248",
    "noradId": "48798",
    "line1": "1 48798U 21045AH  26195.72126575 -.00000115  00000+0 -33993-3 0  9994",
    "line2": "2 48798  87.8994 253.7067 0002448 106.4944 253.6456 13.15548549248032"
  },
  {
    "name": "ONEWEB-0225",
    "noradId": "48799",
    "line1": "1 48799U 21045AJ  26195.66739907 -.00000012  00000+0 -66335-4 0  9990",
    "line2": "2 48799  87.8988 253.7240 0002238 112.9016 247.2351 13.15548180248032"
  },
  {
    "name": "ONEWEB-0215",
    "noradId": "48800",
    "line1": "1 48800U 21045AK  26195.71334065  .00000033  00000+0  53339-4 0  9996",
    "line2": "2 48800  87.8998 253.6986 0002390 114.8099 245.3280 13.15549379247910"
  },
  {
    "name": "ONEWEB-0216",
    "noradId": "48801",
    "line1": "1 48801U 21045AL  26195.64679836 -.00000063  00000+0 -20180-3 0  9999",
    "line2": "2 48801  87.8993 253.7258 0002013  97.5624 262.5735 13.15547895247919"
  }
]